{
  "type": "FeatureCollection",
  "features": [
    {
      "type": "Feature",
      "properties": {
        "norad_id": 30828,
        "name": "FENGYUN 1C DEB",
        "group": "fengyun-1c-debris",
        "lat": -31.336003787988968,
        "lon": -79.48733349917865,
        "alt_km": 590.041844146629,
        "timestamp": "2025-12-24T05:51:19.887439+00:00",
        "meta_object_name": "FENGYUN 1C DEB",
        "meta_object_id": "1999-025AVN",
        "meta_epoch": "2025-12-21T19:04:17.783328",
        "meta_mean_motion": 14.77263453,
        "meta_eccentricity": 0.02086675,
        "meta_inclination": 98.3758,
        "meta_ra_of_asc_node": 103.1148,
        "meta_arg_of_pericenter": 149.8617,
        "meta_mean_anomaly": 1.144,
        "meta_ephemeris_type": 0,
        "meta_classification_type": "U",
        "meta_norad_cat_id": 30828,
        "meta_element_set_no": 999,
        "meta_rev_at_epoch": 98790,
        "meta_bstar": 0.0013165295,
        "meta_mean_motion_dot": 0.00013375,
        "meta_mean_motion_ddot": 0,
        "tle_line1": "1 30828U 99025AVN 25355.79465027  .00013375  00000+0  13165-2 0  9992",
        "tle_line2": "2 30828  98.3758 103.1148 0208667 149.8617   1.1440 14.77263453987901"
      },
      "geometry": {
        "type": "Point",
        "coordinates": [
          -79.48733349917865,
          -31.336003787988968
        ]
      }
    },
    {
      "type": "Feature",
      "properties": {
        "norad_id": 30829,
        "name": "FENGYUN 1C DEB",
        "group": "fengyun-1c-debris",
        "lat": -60.11903926503041,
        "lon": 6.184668452895279,
        "alt_km": 845.6364428042798,
        "timestamp": "2025-12-24T05:51:19.887451+00:00",
        "meta_object_name": "FENGYUN 1C DEB",
        "meta_object_id": "1999-025AVP",
        "meta_epoch": "2025-12-21T04:50:35.348064",
        "meta_mean_motion": 14.0866618,
        "meta_eccentricity": 0.00351096,
        "meta_inclination": 98.7774,
        "meta_ra_of_asc_node": 347.6253,
        "meta_arg_of_pericenter": 310.4409,
        "meta_mean_anomaly": 49.37,
        "meta_ephemeris_type": 0,
        "meta_classification_type": "U",
        "meta_norad_cat_id": 30829,
        "meta_element_set_no": 999,
        "meta_rev_at_epoch": 96552,
        "meta_bstar": 0.0003913399,
        "meta_mean_motion_dot": 6.34e-06,
        "meta_mean_motion_ddot": 0,
        "tle_line1": "1 30829U 99025AVP 25355.20179801  .00000634  00000+0  39134-3 0  9990",
        "tle_line2": "2 30829  98.7774 347.6253 0035109 310.4409  49.3700 14.08666180965525"
      },
      "geometry": {
        "type": "Point",
        "coordinates": [
          6.184668452895279,
          -60.11903926503041
        ]
      }
    },
    {
      "type": "Feature",
      "properties": {
        "norad_id": 30830,
        "name": "FENGYUN 1C DEB",
        "group": "fengyun-1c-debris",
        "lat": -59.039010951946565,
        "lon": 1.1835770938012575,
        "alt_km": 877.0009622595971,
        "timestamp": "2025-12-24T05:51:19.887461+00:00",
        "meta_object_name": "FENGYUN 1C DEB",
        "meta_object_id": "1999-025AVQ",
        "meta_epoch": "2025-12-23T17:22:37.432704",
        "meta_mean_motion": 14.12239452,
        "meta_eccentricity": 0.00312281,
        "meta_inclination": 98.7302,
        "meta_ra_of_asc_node": 345.837,
        "meta_arg_of_pericenter": 157.5567,
        "meta_mean_anomaly": 20.2074,
        "meta_ephemeris_type": 0,
        "meta_classification_type": "U",
        "meta_norad_cat_id": 30830,
        "meta_element_set_no": 999,
        "meta_rev_at_epoch": 96754,
        "meta_bstar": 0.0002449786,
        "meta_mean_motion_dot": 4.1e-06,
        "meta_mean_motion_ddot": 0,
        "tle_line1": "1 30830U 99025AVQ 25357.72404436  .00000410  00000+0  24498-3 0  9995",
        "tle_line2": "2 30830  98.7302 345.8370 0031228 157.5567  20.2074 14.12239452967546"
      },
      "geometry": {
        "type": "Point",
        "coordinates": [
          1.1835770938012575,
          -59.039010951946565
        ]
      }
    },
    {
      "type": "Feature",
      "properties": {
        "norad_id": 30831,
        "name": "FENGYUN 1C DEB",
        "group": "fengyun-1c-debris",
        "lat": -22.96811200685668,
        "lon": -32.14783901613806,
        "alt_km": 829.9919800071821,
        "timestamp": "2025-12-24T05:51:19.887471+00:00",
        "meta_object_name": "FENGYUN 1C DEB",
        "meta_object_id": "1999-025AVR",
        "meta_epoch": "2025-12-22T04:14:50.951040",
        "meta_mean_motion": 14.3110705,
        "meta_eccentricity": 0.00552029,
        "meta_inclination": 99.3285,
        "meta_ra_of_asc_node": 149.6295,
        "meta_arg_of_pericenter": 6.9659,
        "meta_mean_anomaly": 353.2277,
        "meta_ephemeris_type": 0,
        "meta_classification_type": "U",
        "meta_norad_cat_id": 30831,
        "meta_element_set_no": 999,
        "meta_rev_at_epoch": 65385,
        "meta_bstar": 0.00036919243,
        "meta_mean_motion_dot": 9.39e-06,
        "meta_mean_motion_ddot": 0,
        "tle_line1": "1 30831U 99025AVR 25356.17697860  .00000939  00000+0  36919-3 0  9996",
        "tle_line2": "2 30831  99.3285 149.6295 0055202   6.9659 353.2277 14.31107050653856"
      },
      "geometry": {
        "type": "Point",
        "coordinates": [
          -32.14783901613806,
          -22.96811200685668
        ]
      }
    },
    {
      "type": "Feature",
      "properties": {
        "norad_id": 30833,
        "name": "FENGYUN 1C DEB",
        "group": "fengyun-1c-debris",
        "lat": 43.1499378791242,
        "lon": 136.38339667706683,
        "alt_km": 804.7913878076415,
        "timestamp": "2025-12-24T05:51:19.887481+00:00",
        "meta_object_name": "FENGYUN 1C DEB",
        "meta_object_id": "1999-025AVT",
        "meta_epoch": "2025-12-22T16:37:21.942912",
        "meta_mean_motion": 14.26783323,
        "meta_eccentricity": 0.00331007,
        "meta_inclination": 99.8454,
        "meta_ra_of_asc_node": 144.0091,
        "meta_arg_of_pericenter": 153.1061,
        "meta_mean_anomaly": 207.184,
        "meta_ephemeris_type": 0,
        "meta_classification_type": "U",
        "meta_norad_cat_id": 30833,
        "meta_element_set_no": 999,
        "meta_rev_at_epoch": 64553,
        "meta_bstar": 0.00049003244,
        "meta_mean_motion_dot": 1.14e-05,
        "meta_mean_motion_ddot": 0,
        "tle_line1": "1 30833U 99025AVT 25356.69261508  .00001140  00000+0  49003-3 0  9994",
        "tle_line2": "2 30833  99.8454 144.0091 0033100 153.1061 207.1840 14.26783323645535"
      },
      "geometry": {
        "type": "Point",
        "coordinates": [
          136.38339667706683,
          43.1499378791242
        ]
      }
    },
    {
      "type": "Feature",
      "properties": {
        "norad_id": 30836,
        "name": "FENGYUN 1C DEB",
        "group": "fengyun-1c-debris",
        "lat": -58.7011389422327,
        "lon": 45.28205403540255,
        "alt_km": 859.3469744947197,
        "timestamp": "2025-12-24T05:51:19.887491+00:00",
        "meta_object_name": "FENGYUN 1C DEB",
        "meta_object_id": "1999-025AVW",
        "meta_epoch": "2025-12-21T01:36:21.545856",
        "meta_mean_motion": 14.11944491,
        "meta_eccentricity": 0.00260217,
        "meta_inclination": 98.7439,
        "meta_ra_of_asc_node": 27.5216,
        "meta_arg_of_pericenter": 220.4586,
        "meta_mean_anomaly": 139.4651,
        "meta_ephemeris_type": 0,
        "meta_classification_type": "U",
        "meta_norad_cat_id": 30836,
        "meta_element_set_no": 999,
        "meta_rev_at_epoch": 62121,
        "meta_bstar": 0.00026112112,
        "meta_mean_motion_dot": 4.36e-06,
        "meta_mean_motion_ddot": 0,
        "tle_line1": "1 30836U 99025AVW 25355.06691604  .00000436  00000+0  26112-3 0  9994",
        "tle_line2": "2 30836  98.7439  27.5216 0026021 220.4586 139.4651 14.11944491621212"
      },
      "geometry": {
        "type": "Point",
        "coordinates": [
          45.28205403540255,
          -58.7011389422327
        ]
      }
    },
    {
      "type": "Feature",
      "properties": {
        "norad_id": 30837,
        "name": "FENGYUN 1C DEB",
        "group": "fengyun-1c-debris",
        "lat": 81.31538263251285,
        "lon": -105.85329380517038,
        "alt_km": 812.8651277285426,
        "timestamp": "2025-12-24T05:51:19.887501+00:00",
        "meta_object_name": "FENGYUN 1C DEB",
        "meta_object_id": "1999-025AVX",
        "meta_epoch": "2025-12-21T21:32:58.369056",
        "meta_mean_motion": 14.1453265,
        "meta_eccentricity": 0.00332568,
        "meta_inclination": 98.6792,
        "meta_ra_of_asc_node": 341.8767,
        "meta_arg_of_pericenter": 107.9203,
        "meta_mean_anomaly": 281.8511,
        "meta_ephemeris_type": 0,
        "meta_classification_type": "U",
        "meta_norad_cat_id": 30837,
        "meta_element_set_no": 999,
        "meta_rev_at_epoch": 96948,
        "meta_bstar": 0.00028611025,
        "meta_mean_motion_dot": 5.09e-06,
        "meta_mean_motion_ddot": 0,
        "tle_line1": "1 30837U 99025AVX 25355.89789779  .00000509  00000+0  28611-3 0  9994",
        "tle_line2": "2 30837  98.6792 341.8767 0033256 107.9203 281.8511 14.14532650969484"
      },
      "geometry": {
        "type": "Point",
        "coordinates": [
          -105.85329380517038,
          81.31538263251285
        ]
      }
    }
  ]
}